{
  "norad_id": 63997,
  "name": "STARLINK-34165",
  "history": [
    {
      "epoch": "2026-03-28T17:58:14.127168Z",
      "apogee_km": 483.64945706700746,
      "perigee_km": 482.26900450537414,
      "latitude_deg": -3.8514608115960085e-05,
      "longitude_deg": 154.29623391726975,
      "height_km": 482.6919478996031,
      "semi_major_axis_km": 6861.096230786191,
      "eccentricity": 0.0001006,
      "inclination_deg": 43.0007,
      "raan_deg": 250.0199,
      "arg_perigee_deg": 273.6326,
      "mean_anomaly_deg": 86.441,
      "mean_motion_rev_day": 15.27610012
    },
    {
      "epoch": "2026-03-29T03:23:09.902112Z",
      "apogee_km": 484.571189591049,
      "perigee_km": 481.2710206424872,
      "latitude_deg": -8.840331094607342e-07,
      "longitude_deg": 10.461497861840629,
      "height_km": 482.35452275233484,
      "semi_major_axis_km": 6861.058105116767,
      "eccentricity": 0.0002405,
      "inclination_deg": 43.0,
      "raan_deg": 247.8042,
      "arg_perigee_deg": 282.0349,
      "mean_anomaly_deg": 78.0233,
      "mean_motion_rev_day": 15.27622745
    },
    {
      "epoch": "2026-03-30T02:55:31.481760Z",
      "apogee_km": 483.7637902542856,
      "perigee_km": 482.3206098213486,
      "latitude_deg": 5.904265920948885e-07,
      "longitude_deg": 10.864458974837268,
      "height_km": 482.44940716532665,
      "semi_major_axis_km": 6861.179200037816,
      "eccentricity": 0.00010517,
      "inclination_deg": 43.0009,
      "raan_deg": 242.2638,
      "arg_perigee_deg": 300.7754,
      "mean_anomaly_deg": 59.2994,
      "mean_motion_rev_day": 15.27582303
    },
    {
      "epoch": "2026-03-30T10:46:17.476032Z",
      "apogee_km": 483.97667014721173,
      "perigee_km": 481.78869097108236,
      "latitude_deg": 2.6219623197630112e-05,
      "longitude_deg": -108.99478438357157,
      "height_km": 482.1089164057154,
      "semi_major_axis_km": 6861.019680559147,
      "eccentricity": 0.00015945,
      "inclination_deg": 43.0002,
      "raan_deg": 240.4184,
      "arg_perigee_deg": 300.2146,
      "mean_anomaly_deg": 59.8548,
      "mean_motion_rev_day": 15.27635578
    },
    {
      "epoch": "2026-03-30T18:37:04.446624Z",
      "apogee_km": 483.8148104357151,
      "perigee_km": 482.24634752716065,
      "latitude_deg": 1.6499049693056262e-05,
      "longitude_deg": 131.13985542210463,
      "height_km": 482.550802903315,
      "semi_major_axis_km": 6861.167578981438,
      "eccentricity": 0.0001143,
      "inclination_deg": 43.0001,
      "raan_deg": 238.571,
      "arg_perigee_deg": 289.0719,
      "mean_anomaly_deg": 71.0009,
      "mean_motion_rev_day": 15.27586184
    },
    {
      "epoch": "2026-03-31T19:43:35.806080Z",
      "apogee_km": 484.2853976160877,
      "perigee_km": 482.00196340561433,
      "latitude_deg": 7.107142860498821e-06,
      "longitude_deg": 107.57000430170461,
      "height_km": 482.9113696215921,
      "semi_major_axis_km": 6861.280680510851,
      "eccentricity": 0.0001664,
      "inclination_deg": 42.9993,
      "raan_deg": 232.663,
      "arg_perigee_deg": 270.4593,
      "mean_anomaly_deg": 89.6068,
      "mean_motion_rev_day": 15.27548413
    },
    {
      "epoch": "2026-04-01T16:07:39.031392Z",
      "apogee_km": 483.92639253264497,
      "perigee_km": 482.17404531693137,
      "latitude_deg": 1.1802387633429781e-05,
      "longitude_deg": 155.91763656330764,
      "height_km": 482.74795236330937,
      "semi_major_axis_km": 6861.187218924788,
      "eccentricity": 0.0001277,
      "inclination_deg": 42.9993,
      "raan_deg": 227.8619,
      "arg_perigee_deg": 275.1595,
      "mean_anomaly_deg": 84.9111,
      "mean_motion_rev_day": 15.27579625
    },
    {
      "epoch": "2026-04-02T15:39:58.652352Z",
      "apogee_km": 483.5607603972412,
      "perigee_km": 482.27458708810263,
      "latitude_deg": 5.089029957935261e-05,
      "longitude_deg": 156.3337216174395,
      "height_km": 482.7154130969562,
      "semi_major_axis_km": 6861.054673742672,
      "eccentricity": 9.373e-05,
      "inclination_deg": 42.9993,
      "raan_deg": 222.3264,
      "arg_perigee_deg": 268.0817,
      "mean_anomaly_deg": 91.9928,
      "mean_motion_rev_day": 15.27623891
    },
    {
      "epoch": "2026-04-03T18:20:38.710752Z",
      "apogee_km": 484.27816418814837,
      "perigee_km": 481.9686639327765,
      "latitude_deg": 7.1846618674758215e-06,
      "longitude_deg": 108.7932471228205,
      "height_km": 482.945039738659,
      "semi_major_axis_km": 6861.260414060463,
      "eccentricity": 0.0001683,
      "inclination_deg": 43.0009,
      "raan_deg": 216.0485,
      "arg_perigee_deg": 267.7865,
      "mean_anomaly_deg": 92.2794,
      "mean_motion_rev_day": 15.27555181
    },
    {
      "epoch": "2026-04-04T16:18:47.825280Z",
      "apogee_km": 488.10788288213917,
      "perigee_km": 477.74356153397093,
      "latitude_deg": -8.49974458242153e-06,
      "longitude_deg": 133.18180961113723,
      "height_km": 483.63004425606084,
      "semi_major_axis_km": 6861.062722208055,
      "eccentricity": 0.0007553,
      "inclination_deg": 43.0004,
      "raan_deg": 210.8773,
      "arg_perigee_deg": 259.7154,
      "mean_anomaly_deg": 100.2846,
      "mean_motion_rev_day": 15.27621203
    },
    {
      "epoch": "2026-04-05T14:17:02.861664Z",
      "apogee_km": 484.17186209446845,
      "perigee_km": 482.0215514507654,
      "latitude_deg": -8.641759736041233e-06,
      "longitude_deg": 157.54674601053122,
      "height_km": 482.91424604848027,
      "semi_major_axis_km": 6861.233706772617,
      "eccentricity": 0.0001567,
      "inclination_deg": 42.9977,
      "raan_deg": 205.7072,
      "arg_perigee_deg": 267.8166,
      "mean_anomaly_deg": 92.2506,
      "mean_motion_rev_day": 15.275641
    },
    {
      "epoch": "2026-04-05T14:17:02.862528Z",
      "apogee_km": 484.1721365438161,
      "perigee_km": 482.02127700141773,
      "latitude_deg": -5.49955239371841e-06,
      "longitude_deg": 157.5467457519319,
      "height_km": 482.91425650322714,
      "semi_major_axis_km": 6861.233706772617,
      "eccentricity": 0.00015674,
      "inclination_deg": 42.9977,
      "raan_deg": 205.7072,
      "arg_perigee_deg": 267.8166,
      "mean_anomaly_deg": 92.2506,
      "mean_motion_rev_day": 15.275641
    },
    {
      "epoch": "2026-04-05T23:41:59.161920Z",
      "apogee_km": 484.1182208238688,
      "perigee_km": 481.941721437287,
      "latitude_deg": 4.449944142421988e-06,
      "longitude_deg": 13.711088318612436,
      "height_km": 482.84387980918746,
      "semi_major_axis_km": 6861.166971130578,
      "eccentricity": 0.00015861,
      "inclination_deg": 42.9986,
      "raan_deg": 203.4928,
      "arg_perigee_deg": 268.0401,
      "mean_anomaly_deg": 92.0269,
      "mean_motion_rev_day": 15.27586387
    },
    {
      "epoch": "2026-04-07T13:21:43.437600Z",
      "apogee_km": 483.5748954817327,
      "perigee_km": 482.48740033028935,
      "latitude_deg": 4.2581851266022026e-05,
      "longitude_deg": 158.36750719907565,
      "height_km": 482.34946736474126,
      "semi_major_axis_km": 6861.168147906011,
      "eccentricity": 7.925e-05,
      "inclination_deg": 42.9986,
      "raan_deg": 194.6304,
      "arg_perigee_deg": 327.2701,
      "mean_anomaly_deg": 32.8102,
      "mean_motion_rev_day": 15.27585994
    },
    {
      "epoch": "2026-04-07T16:30:02.113344Z",
      "apogee_km": 483.6939444721693,
      "perigee_km": 482.36150628250107,
      "latitude_deg": -2.4592116561529432e-05,
      "longitude_deg": 110.42272509551874,
      "height_km": 482.3352142309395,
      "semi_major_axis_km": 6861.164725377334,
      "eccentricity": 9.71e-05,
      "inclination_deg": 42.9982,
      "raan_deg": 193.8924,
      "arg_perigee_deg": 314.6811,
      "mean_anomaly_deg": 45.3961,
      "mean_motion_rev_day": 15.27587137
    },
    {
      "epoch": "2026-04-08T14:00:04.999680Z",
      "apogee_km": 484.12401775431044,
      "perigee_km": 482.0843079814131,
      "latitude_deg": -40.73690503420668,
      "longitude_deg": 28.680218028829863,
      "height_km": 494.58627393892493,
      "semi_major_axis_km": 6861.241162867862,
      "eccentricity": 0.00014864,
      "inclination_deg": 42.9989,
      "raan_deg": 188.8334,
      "arg_perigee_deg": 284.2187,
      "mean_anomaly_deg": 328.2834,
      "mean_motion_rev_day": 15.2756161
    },
    {
      "epoch": "2026-04-09T12:26:24.833472Z",
      "apogee_km": 483.79929533673203,
      "perigee_km": 482.3422492542086,
      "latitude_deg": -1.2711028876360236e-05,
      "longitude_deg": 159.1801279766117,
      "height_km": 482.89924468781567,
      "semi_major_axis_km": 6861.20777229547,
      "eccentricity": 0.00010618,
      "inclination_deg": 42.9962,
      "raan_deg": 183.549,
      "arg_perigee_deg": 265.8683,
      "mean_anomaly_deg": 94.2047,
      "mean_motion_rev_day": 15.27572761
    },
    {
      "epoch": "2026-04-10T11:58:45.556032Z",
      "apogee_km": 483.9733457016391,
      "perigee_km": 481.98362221129173,
      "latitude_deg": -2.9526194596061492e-05,
      "longitude_deg": 159.5897473935808,
      "height_km": 482.76274184934096,
      "semi_major_axis_km": 6861.115483956465,
      "eccentricity": 0.000145,
      "inclination_deg": 42.9986,
      "raan_deg": 178.0117,
      "arg_perigee_deg": 269.5582,
      "mean_anomaly_deg": 90.5103,
      "mean_motion_rev_day": 15.27603582
    },
    {
      "epoch": "2026-04-11T20:56:02.965056Z",
      "apogee_km": 483.8375887570419,
      "perigee_km": 482.2787252173739,
      "latitude_deg": 5.772574395275144e-06,
      "longitude_deg": 16.159437870306576,
      "height_km": 482.9023839233155,
      "semi_major_axis_km": 6861.195156987208,
      "eccentricity": 0.0001136,
      "inclination_deg": 42.9994,
      "raan_deg": 170.2573,
      "arg_perigee_deg": 265.0076,
      "mean_anomaly_deg": 95.0646,
      "mean_motion_rev_day": 15.27576974
    }
  ]
}